{
  "type": "FeatureCollection",
  "features": [
    {
      "type": "Feature",
      "properties": {
        "norad_id": 63632,
        "name": "SHENZHOU-20 (SZ-20)",
        "group": "stations",
        "lat": 36.22746739095557,
        "lon": 100.06642285323261,
        "alt_km": 382.698123686504,
        "timestamp": "2025-12-08T05:48:07.852232+00:00",
        "meta_object_name": "SHENZHOU-20 (SZ-20)",
        "meta_object_id": "2025-082A",
        "meta_epoch": "2025-12-07T23:22:56.643744",
        "meta_mean_motion": 15.58863749,
        "meta_eccentricity": 0.00092535,
        "meta_inclination": 41.4683,
        "meta_ra_of_asc_node": 45.6321,
        "meta_arg_of_pericenter": 352.4121,
        "meta_mean_anomaly": 7.6575,
        "meta_ephemeris_type": 0,
        "meta_classification_type": "U",
        "meta_norad_cat_id": 63632,
        "meta_element_set_no": 999,
        "meta_rev_at_epoch": 25530,
        "meta_bstar": 0.00029193568,
        "meta_mean_motion_dot": 0.00023028,
        "meta_mean_motion_ddot": 0,
        "tle_line1": "1 63632U 25082A   25341.97426671  .00023028  00000+0  29194-3 0  9996",
        "tle_line2": "2 63632  41.4683  45.6321 0009253 352.4121   7.6575 15.58863749255307"
      },
      "geometry": {
        "type": "Point",
        "coordinates": [
          100.06642285323261,
          36.22746739095557
        ]
      }
    },
    {
      "type": "Feature",
      "properties": {
        "norad_id": 64751,
        "name": "PROGRESS-MS 31",
        "group": "stations",
        "lat": 41.62061245276041,
        "lon": -59.99524288881384,
        "alt_km": 413.0726773809056,
        "timestamp": "2025-12-08T05:48:07.852242+00:00",
        "meta_object_name": "PROGRESS-MS 31",
        "meta_object_id": "2025-146A",
        "meta_epoch": "2025-12-07T21:32:16.385568",
        "meta_mean_motion": 15.49404055,
        "meta_eccentricity": 0.0003425,
        "meta_inclination": 51.6302,
        "meta_ra_of_asc_node": 166.4547,
        "meta_arg_of_pericenter": 217.7386,
        "meta_mean_anomaly": 142.3363,
        "meta_ephemeris_type": 0,
        "meta_classification_type": "U",
        "meta_norad_cat_id": 64751,
        "meta_element_set_no": 999,
        "meta_rev_at_epoch": 675,
        "meta_bstar": 0.00022339025,
        "meta_mean_motion_dot": 0.00012051,
        "meta_mean_motion_ddot": 0,
        "tle_line1": "1 64751U 25146A   25341.89741187  .00012051  00000+0  22339-3 0  9991",
        "tle_line2": "2 64751  51.6302 166.4547 0003425 217.7386 142.3363 15.49404055  6750"
      },
      "geometry": {
        "type": "Point",
        "coordinates": [
          -59.99524288881384,
          41.62061245276041
        ]
      }
    },
    {
      "type": "Feature",
      "properties": {
        "norad_id": 64786,
        "name": "TIANZHOU-9",
        "group": "stations",
        "lat": 36.22746794487741,
        "lon": 100.0664245779693,
        "alt_km": 382.6981237505015,
        "timestamp": "2025-12-08T05:48:07.852255+00:00",
        "meta_object_name": "TIANZHOU-9",
        "meta_object_id": "2025-149A",
        "meta_epoch": "2025-12-07T23:22:56.643744",
        "meta_mean_motion": 15.58863749,
        "meta_eccentricity": 0.00092535,
        "meta_inclination": 41.4683,
        "meta_ra_of_asc_node": 45.6321,
        "meta_arg_of_pericenter": 352.4121,
        "meta_mean_anomaly": 7.6575,
        "meta_ephemeris_type": 0,
        "meta_classification_type": "U",
        "meta_norad_cat_id": 64786,
        "meta_element_set_no": 999,
        "meta_rev_at_epoch": 25530,
        "meta_bstar": 0.00029193568,
        "meta_mean_motion_dot": 0.00023028,
        "meta_mean_motion_ddot": 0,
        "tle_line1": "1 64786U 25149A   25341.97426671  .00023028  00000+0  29194-3 0  9991",
        "tle_line2": "2 64786  41.4683  45.6321 0009253 352.4121   7.6575 15.58863749255308"
      },
      "geometry": {
        "type": "Point",
        "coordinates": [
          100.0664245779693,
          36.22746794487741
        ]
      }
    },
    {
      "type": "Feature",
      "properties": {
        "norad_id": 65077,
        "name": "CREW DRAGON 11",
        "group": "stations",
        "lat": 41.62061162450673,
        "lon": -59.99524123684873,
        "alt_km": 413.07267744828187,
        "timestamp": "2025-12-08T05:48:07.852265+00:00",
        "meta_object_name": "CREW DRAGON 11",
        "meta_object_id": "2025-166A",
        "meta_epoch": "2025-12-07T21:32:16.385568",
        "meta_mean_motion": 15.49404055,
        "meta_eccentricity": 0.0003425,
        "meta_inclination": 51.6302,
        "meta_ra_of_asc_node": 166.4547,
        "meta_arg_of_pericenter": 217.7386,
        "meta_mean_anomaly": 142.3363,
        "meta_ephemeris_type": 0,
        "meta_classification_type": "U",
        "meta_norad_cat_id": 65077,
        "meta_element_set_no": 999,
        "meta_rev_at_epoch": 214,
        "meta_bstar": 0.00022339025,
        "meta_mean_motion_dot": 0.00012051,
        "meta_mean_motion_ddot": 0,
        "tle_line1": "1 65077U 25166A   25341.89741187  .00012051  00000+0  22339-3 0  9995",
        "tle_line2": "2 65077  51.6302 166.4547 0003425 217.7386 142.3363 15.49404055  2141"
      },
      "geometry": {
        "type": "Point",
        "coordinates": [
          -59.99524123684873,
          41.62061162450673
        ]
      }
    },
    {
      "type": "Feature",
      "properties": {
        "norad_id": 65304,
        "name": "DRAGON CRS-33",
        "group": "stations",
        "lat": 41.620611120352045,
        "lon": -59.995240231304265,
        "alt_km": 413.07267748928734,
        "timestamp": "2025-12-08T05:48:07.852279+00:00",
        "meta_object_name": "DRAGON CRS-33",
        "meta_object_id": "2025-186A",
        "meta_epoch": "2025-12-07T21:32:16.385568",
        "meta_mean_motion": 15.49404055,
        "meta_eccentricity": 0.0003425,
        "meta_inclination": 51.6302,
        "meta_ra_of_asc_node": 166.4547,
        "meta_arg_of_pericenter": 217.7386,
        "meta_mean_anomaly": 142.3363,
        "meta_ephemeris_type": 0,
        "meta_classification_type": "U",
        "meta_norad_cat_id": 65304,
        "meta_element_set_no": 999,
        "meta_rev_at_epoch": 11,
        "meta_bstar": 0.00022339025,
        "meta_mean_motion_dot": 0.00012051,
        "meta_mean_motion_ddot": 0,
        "tle_line1": "1 65304U 25186A   25341.89741187  .00012051  00000+0  22339-3 0  9990",
        "tle_line2": "2 65304  51.6302 166.4547 0003425 217.7386 142.3363 15.49404055   119"
      },
      "geometry": {
        "type": "Point",
        "coordinates": [
          -59.995240231304265,
          41.620611120352045
        ]
      }
    },
    {
      "type": "Feature",
      "properties": {
        "norad_id": 65586,
        "name": "PROGRESS-MS 32",
        "group": "stations",
        "lat": 41.62061076024126,
        "lon": -59.99523951305767,
        "alt_km": 413.0726775185831,
        "timestamp": "2025-12-08T05:48:07.852289+00:00",
        "meta_object_name": "PROGRESS-MS 32",
        "meta_object_id": "2025-204A",
        "meta_epoch": "2025-12-07T21:32:16.385568",
        "meta_mean_motion": 15.49404055,
        "meta_eccentricity": 0.0003425,
        "meta_inclination": 51.6302,
        "meta_ra_of_asc_node": 166.4547,
        "meta_arg_of_pericenter": 217.7386,
        "meta_mean_anomaly": 142.3363,
        "meta_ephemeris_type": 0,
        "meta_classification_type": "U",
        "meta_norad_cat_id": 65586,
        "meta_element_set_no": 999,
        "meta_rev_at_epoch": 27,
        "meta_bstar": 0.00022339025,
        "meta_mean_motion_dot": 0.00012051,
        "meta_mean_motion_ddot": 0,
        "tle_line1": "1 65586U 25204A   25341.89741187  .00012051  00000+0  22339-3 0  9993",
        "tle_line2": "2 65586  51.6302 166.4547 0003425 217.7386 142.3363 15.49404055   278"
      },
      "geometry": {
        "type": "Point",
        "coordinates": [
          -59.99523951305767,
          41.62061076024126
        ]
      }
    },
    {
      "type": "Feature",
      "properties": {
        "norad_id": 65616,
        "name": "CYGNUS NG-23",
        "group": "stations",
        "lat": 41.62061043614195,
        "lon": -59.99523886663652,
        "alt_km": 413.0726775449457,
        "timestamp": "2025-12-08T05:48:07.852298+00:00",
        "meta_object_name": "CYGNUS NG-23",
        "meta_object_id": "2025-208A",
        "meta_epoch": "2025-12-07T21:32:16.385568",
        "meta_mean_motion": 15.49404055,
        "meta_eccentricity": 0.0003425,
        "meta_inclination": 51.6302,
        "meta_ra_of_asc_node": 166.4547,
        "meta_arg_of_pericenter": 217.7386,
        "meta_mean_anomaly": 142.3363,
        "meta_ephemeris_type": 0,
        "meta_classification_type": "U",
        "meta_norad_cat_id": 65616,
        "meta_element_set_no": 999,
        "meta_rev_at_epoch": 22,
        "meta_bstar": 0.00022339025,
        "meta_mean_motion_dot": 0.00012051,
        "meta_mean_motion_ddot": 0,
        "tle_line1": "1 65616U 25208A   25341.89741187  .00012051  00000+0  22339-3 0  9991",
        "tle_line2": "2 65616  51.6302 166.4547 0003425 217.7386 142.3363 15.49404055   227"
      },
      "geometry": {
        "type": "Point",
        "coordinates": [
          -59.99523886663652,
          41.62061043614195
        ]
      }
    }
  ]
}